STARLETTE               
1 07646U 75010A   16042.84007273 -.00000134  00000-0  66364-5 0  9999
2 07646  49.8227 257.6577 0205651 181.7569 178.2621 13.82299661 71880
LAGEOS 1                
1 08820U 76039A   16042.77294663  .00000005  00000-0  00000+0 0  9994
2 08820 109.8609 325.0472 0044135  30.6518 169.3463  6.38664935672250
AJISAI (EGS)            
1 16908U 86061A   16043.50817488 -.00000102  00000-0 -34819-4 0  9994
2 16908  50.0067 243.3068 0011177 285.7557  99.2384 12.44482983 10344
LAGEOS 2                
1 22195U 92070B   16043.50188373 -.00000009  00000-0  00000+0 0  9995
2 22195  52.6506 134.1839 0137748 335.3903   1.5557  6.47294071551060
STELLA                  
1 22824U 93061B   16043.52392664 -.00000005  00000-0  16358-4 0  9991
2 22824  98.7517 352.1056 0007106  41.6916  62.5322 14.27361087166013
GRACE-1                 
1 27391U 02012A   16042.83003309  .00019664  00000-0  18988-3 0  9999
2 27391  88.9946  31.9564 0003656 222.1302 230.1529 15.66333785780237
GRACE-2                 
1 27392U 02012B   16043.38825939  .00021585  00000-0  20822-3 0  9997
2 27392  88.9955  31.9474 0003792 217.7765 142.3240 15.66358758780312
LARES                   
1 38077U 12006A   16043.24275520 -.00000022  00000-0  10000-3 0  9994
2 38077  69.4914 265.3194 0008577 352.2124   7.8763 12.54930783183179
